[{"OBJECT_NAME":"VSP ROSE","OBJECT_ID":"2024-043AC","EPOCH":"2026-03-09T21:48:06.922944","MEAN_MOTION":15.27746075,"ECCENTRICITY":0.00099339,"INCLINATION":97.5443,"RA_OF_ASC_NODE":203.927,"ARG_OF_PERICENTER":232.2702,"MEAN_ANOMALY":127.7637,"EPHEMERIS_TYPE":0,"CLASSIFICATION_TYPE":"U","NORAD_CAT_ID":59124,"ELEMENT_SET_NO":999,"REV_AT_EPOCH":11182,"BSTAR":0.00025731354,"MEAN_MOTION_DOT":6.907e-5,"MEAN_MOTION_DDOT":0},{"OBJECT_NAME":"STARLINK-36142","OBJECT_ID":"2025-288Y","EPOCH":"2026-03-09T22:28:07.109760","MEAN_MOTION":15.27581229,"ECCENTRICITY":0.00013217,"INCLINATION":42.999,"RA_OF_ASC_NODE":22.1857,"ARG_OF_PERICENTER":245.7246,"MEAN_ANOMALY":114.3468,"EPHEMERIS_TYPE":0,"CLASSIFICATION_TYPE":"U","NORAD_CAT_ID":66981,"ELEMENT_SET_NO":999,"REV_AT_EPOCH":1532,"BSTAR":0.0011063281,"MEAN_MOTION_DOT":0.00030308,"MEAN_MOTION_DDOT":0}]
